HST                     
1 20580U 90037B   26198.26027256  .00003243  00000+0  97529-4 0  9997
2 20580  28.4720 234.9835 0002186 123.3656 236.7149 15.31073496793186
POLAR                   
1 23802U 96013A   26196.53578426  .00000188  00000+0  00000+0 0  9993
2 23802  79.8926 226.7156 6498828 208.1023  91.7323  1.29846063145237
SWAS                    
1 25560U 98071A   26197.96408023  .00001569  00000+0  10348-3 0  9999
2 25560  69.8942 150.7213 0007820 228.6188 131.4305 15.09753674501762
CXO                     
1 25867U 99040B   26201.11356867  .00000551  00000+0  00000+0 0  9997
2 25867  56.6395 115.7467 7780937 310.0076   0.5836  0.37806069 17440
XMM-NEWTON              
1 25989U 99066A   26199.26509818 -.00000005  00000+0  00000+0 0  9993
2 25989  64.3180 282.5861 4665036  64.3602 359.9798  0.50127855 23154
TERRA                   
1 25994U 99068A   26198.22030542  .00000172  00000+0  43912-4 0  9997
2 25994  97.9440 246.5733 0003489 118.7184 314.4319 14.61124594413996
CLUSTER II-FM7 (SAMBA)  
1 26410U 00041A   26197.13957185  .00051232 -58450-4  00000+0 0  9991
2 26410 149.8273  56.2567 9088690 273.7641 359.2168  0.44844033 20444
CLUSTER II-FM8 (TANGO)  
1 26464U 00045B   26195.45112017  .00019821  00000+0  00000+0 0  9994
2 26464 150.0407  57.1141 9091460 274.4512   1.9889  0.44421596 20433
ODIN                    
1 26702U 01007A   26198.06838138  .00291443  33379-4  95323-3 0  9995
2 26702  97.3705 241.2154 0005205 152.9850 207.1695 15.90578805394128
TIMED                   
1 26998U 01055B   26197.98103171  .00000549  00000+0  53380-4 0  9990
2 26998  74.0666 175.0261 0002262 298.9888  61.1069 14.95346620335274
CORIOLIS                
1 27640U 03001A   26198.00382419  .00000034  00000+0  36676-4 0  9994
2 27640  98.7135 204.4341 0014979 124.2570 236.0028 14.19952170218453
SORCE                   
1 27651U 03004A   26198.15709604  .00001244  00000+0  99493-4 0  9994
2 27651  39.9913  90.6665 0018771 267.5822  92.2823 15.03847260276417
MOST                    
1 27843U 03031D   26198.27065378  .00000009  00000+0  24169-4 0  9999
2 27843  98.7054 205.5775 0010225 159.2786 200.8808 14.21327955194984
SCISAT 1                
1 27858U 03036A   26197.93834711  .00000259  00000+0  37793-4 0  9991
2 27858  73.9301 112.2315 0007282 179.8703 180.2477 14.81480004235856
SWIFT                   
1 28485U 04047A   26197.60848711  .00041559  00000+0  30413-3 0  9999
2 28485  20.5526 317.4567 0002327  39.5512 320.5104 15.71279814191495
HINODE (SOLAR-B)        
1 29479U 06041A   26198.29928824  .00000267  00000+0  54162-4 0  9998
2 29479  98.0548 214.0079 0017198 187.6928 172.4016 14.68659630 59291
SHIJIAN-6 02A (SJ-6 02A)
1 29505U 06046A   26198.29967184  .00001601  00000+0  83916-4 0  9997
2 29505  97.6340 239.5960 0004228  59.4323 300.7327 15.17257662 76836
SHIJIAN-6 02B (SJ-6 02B)
1 29506U 06046B   26198.33677715  .00000347  00000+0  31558-4 0  9992
2 29506  97.7139 227.2085 0013158 328.7992  31.2450 15.01439543 75264
FGRST (GLAST)           
1 33053U 08029A   26197.82342098  .00001930  00000+0  63774-4 0  9997
2 33053  25.5830 358.6806 0007836 319.2745  40.7207 15.24082163   215
SDO                     
1 36395U 10005A   26198.24011013 -.00000096  00000+0  00000+0 0  9994
2 36395  34.7122  85.8846 0001789  45.4972 147.9067  1.00277241 60365
CRYOSAT 2               
1 36508U 10013A   26198.26855044  .00000107  00000+0  25800-4 0  9993
2 36508  92.0358 284.6146 0002418  98.7314 261.4168 14.51898856862446
X-SAT                   
1 37389U 11015C   26198.27333991  .00000260  00000+0  12831-3 0  9996
2 37389  98.3528 173.8670 0012720 254.2416 105.7362 14.25214783791968
GCOM-W1 (SHIZUKU)       
1 38337U 12025A   26198.33503778  .00000189  00000+0  51995-4 0  9996
2 38337  98.2024 138.4348 0001297  78.4637  83.1827 14.57091170753421
NUSTAR                  
1 38358U 12031A   26198.25002315  .00006799  00000+0  36364-3 0  9993
2 38358   6.0251 168.5742 0008496 201.9691 200.0095 15.09047759  1308
NEOSSAT                 
1 39089U 13009D   26197.96557152  .00000043  00000+0  29614-4 0  9999
2 39089  98.4192  17.2921 0011550 152.1982 207.9824 14.35836026701015
BRITE-AUSTRIA           
1 39091U 13009F   26197.94936880  .00000067  00000+0  37191-4 0  9994
2 39091  98.4010  16.6507 0010857 145.7302 214.4587 14.36552927701322
IRIS                    
1 39197U 13033A   26198.26578925  .00000498  00000+0  63214-4 0  9999
2 39197  97.9318  37.4480 0023465 217.9016 142.0548 14.85939174704848
HISAKI (SPRINT-A)       
1 39253U 13049A   26198.10340783  .00000090  00000+0  31566-4 0  9994
2 39253  29.7215  67.9110 0136986 259.3468  99.1650 13.55546838635488
CASSIOPE                
1 39265U 13055A   26198.24852452  .00016695 -53946-6  17849-3 0  9990
2 39265  80.9127  30.1371 0282550 320.9115  37.1995 15.27493506672250
STSAT-3                 
1 39422U 13066G   26198.20813898  .00001849  00000+0  14226-3 0  9990
2 39422  97.6196 167.6121 0008872 297.3233  62.7088 15.02893402688713
